NSS-11                  
1 26554U 00059A   26204.78973801  .00000028  00000+0  00000+0 0  9991
2 26554   2.2183  80.9556 0003112  38.9036 281.9573  1.00272107 41650
AMC-6                   
1 26580U 00067A   26204.72817447  .00000093  00000+0  00000+0 0  9998
2 26580   0.2427  83.8937 0004185  48.7518 295.8952  1.00271916 94254
AMC-15                  
1 28446U 04041A   26204.63740389 -.00000084  00000+0  00000+0 0  9998
2 28446   0.0507 279.1234 0002548 203.0280 303.6283  1.00272466 79661
NSS-10                  
1 28526U 05003A   26204.39104271 -.00000253  00000+0  00000+0 0  9991
2 28526   6.5377  70.0093 0002933  50.2869 284.1439  1.00271357 53510
ASTRA 1KR               
1 29055U 06012A   26204.82990527  .00000123  00000+0  00000+0 0  9990
2 29055   0.5655  83.1704 0003405  27.2243 148.9188  1.00270160 46061
ASTRA 1L                
1 31306U 07016A   26204.82135083 -.00000181  00000+0  00000+0 0  9990
2 31306   1.4135  81.2825 0005577  38.3126  93.1220  1.00271823 45350
ASTRA 4A                
1 32299U 07057A   26204.88030727  .00000037  00000+0  00000+0 0  9991
2 32299   0.0554 271.2032 0002706 209.8155 142.3024  1.00270798 52011
ASTRA 1M                
1 33436U 08057A   26204.82999192  .00000126  00000+0  00000+0 0  9999
2 33436   0.3878  82.8719 0004841  45.5193 131.3420  1.00274199 46104
NSS-9                   
1 33749U 09008A   26204.79112470  .00000075  00000+0  00000+0 0  9998
2 33749   1.3535  82.2950 0002423  25.3953 301.6890  1.00271871 63888
SES-7 (PROTOSTAR 2)     
1 34941U 09027A   26204.77630463 -.00000340  00000+0  00000+0 0  9995
2 34941   0.0089  37.6302 0001425 151.8963 139.6674  1.00269924 62991
NSS-12                  
1 36032U 09058A   26204.62357323  .00000076  00000+0  00000+0 0  9992
2 36032   0.0726 268.4999 0004926 176.3240 138.0234  1.00274329 61288
SES-1                   
1 36516U 10016A   26204.63533843 -.00000110  00000+0  00000+0 0  9999
2 36516   0.0474 275.1643 0002720 200.3476 313.5744  1.00272253 59394
ASTRA 3B                
1 36581U 10021A   26204.86919735  .00000141  00000+0  00000+0 0  9993
2 36581   1.5609  83.0959 0004178  30.3310 164.5888  1.00274128 59234
SES-3                   
1 37748U 11035A   26204.59189176 -.00000098  00000+0  00000+0 0  9995
2 37748   1.4178  82.6861 0002299  39.1840 289.5440  1.00272158 54951
ASTRA 1N                
1 37775U 11041A   26204.82999192  .00000125  00000+0  00000+0 0  9995
2 37775   0.0678  26.6911 0006102  91.6209 141.2321  1.00274337 44899
SES-2                   
1 37809U 11049A   26204.80897810 -.00000191  00000+0  00000+0 0  9997
2 37809   0.1490  90.5408 0003064  27.2296  27.9917  1.00272587 54332
QUETZSAT 1              
1 37826U 11054A   26204.32643683 -.00000237  00000+0  00000+0 0  9997
2 37826   0.0327 292.7938 0002999 193.8825 214.8943  1.00271082 50237
SES-4                   
1 38087U 12007A   26204.82178419 -.00000163  00000+0  00000+0 0  9999
2 38087   0.0230  32.4949 0002464  95.8887  87.0127  1.00272932 52597
SES-5                   
1 38652U 12036A   26204.61329853  .00000038  00000+0  00000+0 0  9996
2 38652   0.0430 324.3782 0002301 152.2057  50.5140  1.00270882 44821
ASTRA 2F                
1 38778U 12051A   26204.86364249  .00000155  00000+0  00000+0 0  9997
2 38778   0.0679 250.6614 0003365 290.0291  99.9773  1.00274479 41509
SES-6                   
1 39172U 13026A   26204.81816480 -.00000256  00000+0  00000+0 0  9996
2 39172   0.0178  31.5199 0002806  71.8776  92.1876  1.00270986 48097
O3B FM5                 
1 39188U 13031A   26204.61994711 -.00000024  00000+0  00000+0 0  9994
2 39188   0.0939 332.6577 0002771 134.3367 253.0339  5.00115728238860
O3B FM4                 
1 39189U 13031B   26204.73938853 -.00000024  00000+0  00000+0 0  9993
2 39189   0.0395 348.0049 0004885 115.5044 256.5429  5.00116055238876
O3B FM2                 
1 39190U 13031C   26204.60496100 -.00000024  00000+0  00000+0 0  9995
2 39190   0.0345 345.4817 0002711 132.2352 242.3084  5.00116168238922
O3B PFM                 
1 39191U 13031D   26204.41919220 -.00000024  00000+0  00000+0 0  9998
2 39191   0.0662 345.1114 0005282 122.2534 252.6908  5.00116158238488
ASTRA 2E                
1 39285U 13056A   26204.86364249  .00000155  00000+0  00000+0 0  9997
2 39285   0.0641 328.6108 0002512 152.5329 159.8154  1.00273174 46788
SES-8                   
1 39460U 13071A   26204.77370462 -.00000264  00000+0  00000+0 0  9995
2 39460   0.0591 257.5836 0002951 221.9532 195.4870  1.00271043 44792
ASTRA 5B                
1 39617U 14011B   26204.86919735  .00000142  00000+0  00000+0 0  9990
2 39617   0.0607 314.8028 0002262 175.3919 147.7552  1.00273045 45039
O3B FM3                 
1 40079U 14038A   26204.68577753 -.00000024  00000+0  00000+0 0  9993
2 40079   0.0479 352.4242 0002827 181.2609 186.3163  5.00115809214879
O3B FM7                 
1 40080U 14038B   26204.43201382 -.00000024  00000+0  00000+0 0  9990
2 40080   0.0446 344.0074 0003504 104.9315 271.0990  5.00115754219698
O3B FM6                 
1 40081U 14038C   26204.65887468 -.00000024  00000+0  00000+0 0  9990
2 40081   0.0462 349.6841 0002610 131.0260 239.3135  5.00115848219655
O3B FM8                 
1 40082U 14038D   26204.71210402 -.00000024  00000+0  00000+0 0  9996
2 40082   0.0457 348.3694 0002770 134.5854 237.0696  5.00116185219760
O3B FM10                
1 40348U 14083A   26203.73993571 -.00000024  00000+0  00000+0 0  9997
2 40348   0.0403 347.6969 0004868 115.0145 257.3408  5.00115763211679
O3B FM11                
1 40349U 14083B   26204.35223911 -.00000024  00000+0  00000+0 0  9991
2 40349   0.0552 350.4512 0002507 113.5931 255.9814  5.00115624211722
O3B FM12                
1 40350U 14083C   26204.77900194 -.00000024  00000+0  00000+0 0  9994
2 40350   0.0543 350.7053 0002473 129.7078 239.6092  5.00116045211747
O3B FM9                 
1 40351U 14083D   26204.60593716 -.00000024  00000+0  00000+0 0  9995
2 40351   0.0558 349.4731 0002674 129.6273 240.9242  5.00116122211884
ASTRA 2G                
1 40364U 14089A   26204.86364249  .00000155  00000+0  00000+0 0  9994
2 40364   0.0650  43.2614 0004577  37.1631 200.2473  1.00273444 42339
SES-9                   
1 41380U 16013A   26204.56251162 -.00000340  00000+0  00000+0 0  9995
2 41380   0.0185 326.6761 0002430 139.0579 146.3674  1.00271796 37808
SES-10                  
1 42432U 17017A   26204.74152118 -.00000268  00000+0  00000+0 0  9999
2 42432   0.0172  51.2477 0002843  70.6822  19.5855  1.00272701 34128
SES-15                  
1 42709U 17026A   26204.72930115  .00000065  00000+0  00000+0 0  9999
2 42709   0.0313 314.6037 0000615 132.1158 348.1297  1.00266677  7790
SES-11 (ECHOSTAR 105)   
1 42967U 17063A   26204.63740368 -.00000085  00000+0  00000+0 0  9998
2 42967   0.0509 279.6629 0003043 198.4765 307.7433  1.00274151 32086
SES-14                  
1 43175U 18012B   26204.53163141 -.00000274  00000+0  00000+0 0  9992
2 43175   0.0126  36.6040 0001177  76.7849 331.7515  1.00272401  7398
O3B FM15                
1 43231U 18024A   26202.67385466 -.00000024  00000+0  00000+0 0  9990
2 43231   0.0531 359.0857 0002600 119.5870 241.3509  5.00115847152755
O3B FM16                
1 43232U 18024B   26204.52518753 -.00000024  00000+0  00000+0 0  9994
2 43232   0.0541   3.3363 0002613 116.1351 240.5525  5.00116061152768
O3B FM14                
1 43233U 18024C   26204.36611716 -.00000024  00000+0  00000+0 0  9990
2 43233   0.0530   4.4577 0002863 116.3262 239.2420  5.00115864152754
O3B FM13                
1 43234U 18024D   26204.03222176 -.00000024  00000+0  00000+0 0  9993
2 43234   0.0478 328.1728 0001503  96.1292 295.7112  5.00115371152857
SES-12                  
1 43488U 18049A   26204.84497176 -.00000265  00000+0  00000+0 0  9991
2 43488   0.0110   5.2198 0000530 231.6046 103.9368  1.00273997 29780
O3B FM20                
1 44112U 19020A   26204.59207523 -.00000024  00000+0  00000+0 0  9996
2 44112   0.0530 355.3075 0002337 119.4454 245.2692  5.00115738133392
O3B FM19                
1 44113U 19020B   26201.02105029 -.00000024  00000+0  00000+0 0  9990
2 44113   0.0665 344.6135 0005087 111.9760 263.4653  5.00116115133087
O3B FM17                
1 44114U 19020C   26204.49937130 -.00000024  00000+0  00000+0 0  9991
2 44114   0.0381  12.1922 0002563 108.7764 239.0543  5.00115687133347
O3B FM18                
1 44115U 19020D   26204.44571825 -.00000024  00000+0  00000+0 0  9992
2 44115   0.0534 355.1589 0002761 126.2339 238.6321  5.00115453133463
SES-17                  
1 49332U 21095A   26204.81287811 -.00000267  00000+0  00000+0 0  9992
2 49332   0.0215  49.0582 0001188  63.6151  54.4106  1.00270174 18224
SES-22                  
1 52933U 22071A   26204.78447632  .00000110  00000+0  00000+0 0  9999
2 52933   0.0293 284.2488 0001373 180.8965 339.7652  1.00270381  7896
SES-20                  
1 53960U 22123A   26204.59189176 -.00000096  00000+0  00000+0 0  9997
2 53960   0.0134  64.5030 0002227  25.5414 321.2560  1.00268913 13895
SES-21                  
1 53961U 22123B   26204.60319330  .00000000  00000+0  00000+0 0  9991
2 53961   0.0372  44.8411 0000827  82.5832 260.1458  1.00268186  7572
O3B MPOWER F1           
1 54755U 22174A   26204.81617147 -.00000024  00000+0  00000+0 0  9996
2 54755   0.0484 338.7873 0006691 153.2058  35.0487  5.00114797 67193
O3B MPOWER F2           
1 54756U 22174B   26204.29038016 -.00000024  00000+0  00000+0 0  9991
2 54756   0.0444 339.7154 0005776 135.6927 244.6495  5.00114951 67251
SES-18                  
1 55970U 23038A   26204.59189176 -.00000096  00000+0  00000+0 0  9996
2 55970   0.0600 259.5460 0001101 288.2972 223.4550  1.00272256 12465
SES-19                  
1 55971U 23038B   26204.58556507  .00000092  00000+0  00000+0 0  9997
2 55971   0.0385 279.6605 0001923 202.9854 254.5791  1.00274438 12459
O3B MPOWER F4           
1 56367U 23059A   26204.35460057 -.00000024  00000+0  00000+0 0  9995
2 56367   0.0628 348.6084 0007738 135.4587 236.0042  5.00115390 60418
O3B MPOWER F3           
1 56368U 23059B   26204.58760554 -.00000024  00000+0  00000+0 0  9996
2 56368   0.0635 347.7104 0006644 130.2131 242.1416  5.00116508 56547
O3B MPOWER F5           
1 58346U 23175A   26204.48872139 -.00000024  00000+0  00000+0 0  9995
2 58346   0.0534   8.3291 0005610 132.0862 219.6235  5.00115876 51251
O3B MPOWER F6           
1 58347U 23175B   26204.58920160 -.00000024  00000+0  00000+0 0  9995
2 58347   0.0547 359.9755 0004432 120.9896 239.0764  5.00115782 50179
ASTRA 1P (SES-24)       
1 60086U 24115A   26204.11710375  .00000124  00000+0  00000+0 0  9997
2 60086   0.0671 323.7661 0001164 247.1895 151.2508  1.00268700  7555
O3B MPOWER F7           
1 62362U 24244A   26204.65560860 -.00000024  00000+0  00000+0 0  9990
2 62362   0.0654 341.2607 0005918 136.1311 242.6662  5.00115456 28351
O3B MPOWER F8           
1 62363U 24244B   26204.42267422 -.00000024  00000+0  00000+0 0  9994
2 62363   0.0156  13.2781 0005671  97.1861 249.5946  5.00115069 22681
O3B MPOWER F9           
1 64866U 25153A   26204.35604355 -.00000024  00000+0  00000+0 0  9996
2 64866   0.0622   4.1855 0006811 134.9279 220.9355  5.00115699 21371
O3B MPOWER F10          
1 64867U 25153B   26204.52200137 -.00000024  00000+0  00000+0 0  9996
2 64867   0.0591   0.9682 0002638 246.9580 112.0436  5.00114992 23852
